ONEWEB-0319             
1 49105U 21075AG  25088.94680688  .00000149  00000+0  34968-3 0  9992
2 49105  87.9005  94.3683 0001906 104.5011 255.6332 13.17651347175109
ONEWEB-0323             
1 49106U 21075AH  25089.26416681  .00000397  00000+0  10687-2 0  9995
2 49106  87.8811  78.9869 0001948 109.9807 250.1532 13.12440992177321
ONEWEB-0329             
1 49107U 21075AJ  25088.95526139  .00000065  00000+0  13350-3 0  9994
2 49107  87.9003  94.3711 0001792  96.1887 263.9449 13.17650467175081
ONEWEB-0330             
1 49108U 21075AK  25088.95694136  .00000039  00000+0  68367-4 0  9998
2 49108  87.9003  94.3731 0001658  91.9534 268.1788 13.17651002175121
ONEWEB-0292             
1 49186U 21083A   25088.89783334 -.00000115  00000+0 -35113-3 0  9994
2 49186  87.8952  48.5596 0001985  87.1634 272.9722 13.13473770172601
ONEWEB-0303             
1 49187U 21083B   25088.89629630  .00000011  00000+0 -55702-5 0  9995
2 49187  87.9086  63.7764 0001993  91.2874 268.8487 13.18687051171423
ONEWEB-0306             
1 49188U 21083C   25088.96266637 -.00000262  00000+0 -69766-3 0  9990
2 49188  87.9085  63.7482 0001829  79.5981 280.5357 13.18685123171476
ONEWEB-0307             
1 49189U 21083D   25089.12043762  .00000076  00000+0  17298-3 0  9996
2 49189  87.8954  48.5185 0001686  73.3902 286.7412 13.13469563173923
