<?xml version="1.0" encoding="UTF-8"?>
<ndm xmlns:xsi="http://www.w3.org/2001/XMLSchema-instance" xsi:noNamespaceSchemaLocation="https://sanaregistry.org/r/ndmxml_unqualified/ndmxml-2.0.0-master-2.0.xsd">
<omm id="CCSDS_OMM_VERS" version="2.0">
<header><CREATION_DATE/><ORIGINATOR/></header><body><segment><metadata><OBJECT_NAME>ONEWEB-0319</OBJECT_NAME><OBJECT_ID>2021-075AG</OBJECT_ID><CENTER_NAME>EARTH</CENTER_NAME><REF_FRAME>TEME</REF_FRAME><TIME_SYSTEM>UTC</TIME_SYSTEM><MEAN_ELEMENT_THEORY>SGP4</MEAN_ELEMENT_THEORY></metadata><data><meanElements><EPOCH>2025-03-29T22:43:24.114432</EPOCH><MEAN_MOTION>13.17651347</MEAN_MOTION><ECCENTRICITY>.0001906</ECCENTRICITY><INCLINATION>87.9005</INCLINATION><RA_OF_ASC_NODE>94.3683</RA_OF_ASC_NODE><ARG_OF_PERICENTER>104.5011</ARG_OF_PERICENTER><MEAN_ANOMALY>255.6332</MEAN_ANOMALY></meanElements><tleParameters><EPHEMERIS_TYPE>0</EPHEMERIS_TYPE><CLASSIFICATION_TYPE>U</CLASSIFICATION_TYPE><NORAD_CAT_ID>49105</NORAD_CAT_ID><ELEMENT_SET_NO>999</ELEMENT_SET_NO><REV_AT_EPOCH>17510</REV_AT_EPOCH><BSTAR>.34968E-3</BSTAR><MEAN_MOTION_DOT>.149E-5</MEAN_MOTION_DOT><MEAN_MOTION_DDOT>0</MEAN_MOTION_DDOT></tleParameters></data></segment></body></omm>
<omm id="CCSDS_OMM_VERS" version="2.0">
<header><CREATION_DATE/><ORIGINATOR/></header><body><segment><metadata><OBJECT_NAME>ONEWEB-0323</OBJECT_NAME><OBJECT_ID>2021-075AH</OBJECT_ID><CENTER_NAME>EARTH</CENTER_NAME><REF_FRAME>TEME</REF_FRAME><TIME_SYSTEM>UTC</TIME_SYSTEM><MEAN_ELEMENT_THEORY>SGP4</MEAN_ELEMENT_THEORY></metadata><data><meanElements><EPOCH>2025-03-30T06:20:24.012384</EPOCH><MEAN_MOTION>13.12440992</MEAN_MOTION><ECCENTRICITY>.0001948</ECCENTRICITY><INCLINATION>87.8811</INCLINATION><RA_OF_ASC_NODE>78.9869</RA_OF_ASC_NODE><ARG_OF_PERICENTER>109.9807</ARG_OF_PERICENTER><MEAN_ANOMALY>250.1532</MEAN_ANOMALY></meanElements><tleParameters><EPHEMERIS_TYPE>0</EPHEMERIS_TYPE><CLASSIFICATION_TYPE>U</CLASSIFICATION_TYPE><NORAD_CAT_ID>49106</NORAD_CAT_ID><ELEMENT_SET_NO>999</ELEMENT_SET_NO><REV_AT_EPOCH>17732</REV_AT_EPOCH><BSTAR>.10687E-2</BSTAR><MEAN_MOTION_DOT>.397E-5</MEAN_MOTION_DOT><MEAN_MOTION_DDOT>0</MEAN_MOTION_DDOT></tleParameters></data></segment></body></omm>
<omm id="CCSDS_OMM_VERS" version="2.0">
<header><CREATION_DATE/><ORIGINATOR/></header><body><segment><metadata><OBJECT_NAME>ONEWEB-0329</OBJECT_NAME><OBJECT_ID>2021-075AJ</OBJECT_ID><CENTER_NAME>EARTH</CENTER_NAME><REF_FRAME>TEME</REF_FRAME><TIME_SYSTEM>UTC</TIME_SYSTEM><MEAN_ELEMENT_THEORY>SGP4</MEAN_ELEMENT_THEORY></metadata><data><meanElements><EPOCH>2025-03-29T22:55:34.584096</EPOCH><MEAN_MOTION>13.17650467</MEAN_MOTION><ECCENTRICITY>.0001792</ECCENTRICITY><INCLINATION>87.9003</INCLINATION><RA_OF_ASC_NODE>94.3711</RA_OF_ASC_NODE><ARG_OF_PERICENTER>96.1887</ARG_OF_PERICENTER><MEAN_ANOMALY>263.9449</MEAN_ANOMALY></meanElements><tleParameters><EPHEMERIS_TYPE>0</EPHEMERIS_TYPE><CLASSIFICATION_TYPE>U</CLASSIFICATION_TYPE><NORAD_CAT_ID>49107</NORAD_CAT_ID><ELEMENT_SET_NO>999</ELEMENT_SET_NO><REV_AT_EPOCH>17508</REV_AT_EPOCH><BSTAR>.1335E-3</BSTAR><MEAN_MOTION_DOT>.65E-6</MEAN_MOTION_DOT><MEAN_MOTION_DDOT>0</MEAN_MOTION_DDOT></tleParameters></data></segment></body></omm>
<omm id="CCSDS_OMM_VERS" version="2.0">
<header><CREATION_DATE/><ORIGINATOR/></header><body><segment><metadata><OBJECT_NAME>ONEWEB-0330</OBJECT_NAME><OBJECT_ID>2021-075AK</OBJECT_ID><CENTER_NAME>EARTH</CENTER_NAME><REF_FRAME>TEME</REF_FRAME><TIME_SYSTEM>UTC</TIME_SYSTEM><MEAN_ELEMENT_THEORY>SGP4</MEAN_ELEMENT_THEORY></metadata><data><meanElements><EPOCH>2025-03-29T22:57:59.733504</EPOCH><MEAN_MOTION>13.17651002</MEAN_MOTION><ECCENTRICITY>.0001658</ECCENTRICITY><INCLINATION>87.9003</INCLINATION><RA_OF_ASC_NODE>94.3731</RA_OF_ASC_NODE><ARG_OF_PERICENTER>91.9534</ARG_OF_PERICENTER><MEAN_ANOMALY>268.1788</MEAN_ANOMALY></meanElements><tleParameters><EPHEMERIS_TYPE>0</EPHEMERIS_TYPE><CLASSIFICATION_TYPE>U</CLASSIFICATION_TYPE><NORAD_CAT_ID>49108</NORAD_CAT_ID><ELEMENT_SET_NO>999</ELEMENT_SET_NO><REV_AT_EPOCH>17512</REV_AT_EPOCH><BSTAR>.68367E-4</BSTAR><MEAN_MOTION_DOT>.39E-6</MEAN_MOTION_DOT><MEAN_MOTION_DDOT>0</MEAN_MOTION_DDOT></tleParameters></data></segment></body></omm>
<omm id="CCSDS_OMM_VERS" version="2.0">
<header><CREATION_DATE/><ORIGINATOR/></header><body><segment><metadata><OBJECT_NAME>ONEWEB-0292</OBJECT_NAME><OBJECT_ID>2021-083A</OBJECT_ID><CENTER_NAME>EARTH</CENTER_NAME><REF_FRAME>TEME</REF_FRAME><TIME_SYSTEM>UTC</TIME_SYSTEM><MEAN_ELEMENT_THEORY>SGP4</MEAN_ELEMENT_THEORY></metadata><data><meanElements><EPOCH>2025-03-29T21:32:52.800576</EPOCH><MEAN_MOTION>13.13473770</MEAN_MOTION><ECCENTRICITY>.0001985</ECCENTRICITY><INCLINATION>87.8952</INCLINATION><RA_OF_ASC_NODE>48.5596</RA_OF_ASC_NODE><ARG_OF_PERICENTER>87.1634</ARG_OF_PERICENTER><MEAN_ANOMALY>272.9722</MEAN_ANOMALY></meanElements><tleParameters><EPHEMERIS_TYPE>0</EPHEMERIS_TYPE><CLASSIFICATION_TYPE>U</CLASSIFICATION_TYPE><NORAD_CAT_ID>49186</NORAD_CAT_ID><ELEMENT_SET_NO>999</ELEMENT_SET_NO><REV_AT_EPOCH>17260</REV_AT_EPOCH><BSTAR>-.35113E-3</BSTAR><MEAN_MOTION_DOT>-.115E-5</MEAN_MOTION_DOT><MEAN_MOTION_DDOT>0</MEAN_MOTION_DDOT></tleParameters></data></segment></body></omm>
<omm id="CCSDS_OMM_VERS" version="2.0">
<header><CREATION_DATE/><ORIGINATOR/></header><body><segment><metadata><OBJECT_NAME>ONEWEB-0303</OBJECT_NAME><OBJECT_ID>2021-083B</OBJECT_ID><CENTER_NAME>EARTH</CENTER_NAME><REF_FRAME>TEME</REF_FRAME><TIME_SYSTEM>UTC</TIME_SYSTEM><MEAN_ELEMENT_THEORY>SGP4</MEAN_ELEMENT_THEORY></metadata><data><meanElements><EPOCH>2025-03-29T21:30:40.000320</EPOCH><MEAN_MOTION>13.18687051</MEAN_MOTION><ECCENTRICITY>.0001993</ECCENTRICITY><INCLINATION>87.9086</INCLINATION><RA_OF_ASC_NODE>63.7764</RA_OF_ASC_NODE><ARG_OF_PERICENTER>91.2874</ARG_OF_PERICENTER><MEAN_ANOMALY>268.8487</MEAN_ANOMALY></meanElements><tleParameters><EPHEMERIS_TYPE>0</EPHEMERIS_TYPE><CLASSIFICATION_TYPE>U</CLASSIFICATION_TYPE><NORAD_CAT_ID>49187</NORAD_CAT_ID><ELEMENT_SET_NO>999</ELEMENT_SET_NO><REV_AT_EPOCH>17142</REV_AT_EPOCH><BSTAR>-.55702E-5</BSTAR><MEAN_MOTION_DOT>.11E-6</MEAN_MOTION_DOT><MEAN_MOTION_DDOT>0</MEAN_MOTION_DDOT></tleParameters></data></segment></body></omm>
<omm id="CCSDS_OMM_VERS" version="2.0">
<header><CREATION_DATE/><ORIGINATOR/></header><body><segment><metadata><OBJECT_NAME>ONEWEB-0306</OBJECT_NAME><OBJECT_ID>2021-083C</OBJECT_ID><CENTER_NAME>EARTH</CENTER_NAME><REF_FRAME>TEME</REF_FRAME><TIME_SYSTEM>UTC</TIME_SYSTEM><MEAN_ELEMENT_THEORY>SGP4</MEAN_ELEMENT_THEORY></metadata><data><meanElements><EPOCH>2025-03-29T23:06:14.374368</EPOCH><MEAN_MOTION>13.18685123</MEAN_MOTION><ECCENTRICITY>.0001829</ECCENTRICITY><INCLINATION>87.9085</INCLINATION><RA_OF_ASC_NODE>63.7482</RA_OF_ASC_NODE><ARG_OF_PERICENTER>79.5981</ARG_OF_PERICENTER><MEAN_ANOMALY>280.5357</MEAN_ANOMALY></meanElements><tleParameters><EPHEMERIS_TYPE>0</EPHEMERIS_TYPE><CLASSIFICATION_TYPE>U</CLASSIFICATION_TYPE><NORAD_CAT_ID>49188</NORAD_CAT_ID><ELEMENT_SET_NO>999</ELEMENT_SET_NO><REV_AT_EPOCH>17147</REV_AT_EPOCH><BSTAR>-.69766E-3</BSTAR><MEAN_MOTION_DOT>-.262E-5</MEAN_MOTION_DOT><MEAN_MOTION_DDOT>0</MEAN_MOTION_DDOT></tleParameters></data></segment></body></omm>
<omm id="CCSDS_OMM_VERS" version="2.0">
<header><CREATION_DATE/><ORIGINATOR/></header><body><segment><metadata><OBJECT_NAME>ONEWEB-0307</OBJECT_NAME><OBJECT_ID>2021-083D</OBJECT_ID><CENTER_NAME>EARTH</CENTER_NAME><REF_FRAME>TEME</REF_FRAME><TIME_SYSTEM>UTC</TIME_SYSTEM><MEAN_ELEMENT_THEORY>SGP4</MEAN_ELEMENT_THEORY></metadata><data><meanElements><EPOCH>2025-03-30T02:53:25.810368</EPOCH><MEAN_MOTION>13.13469563</MEAN_MOTION><ECCENTRICITY>.0001686</ECCENTRICITY><INCLINATION>87.8954</INCLINATION><RA_OF_ASC_NODE>48.5185</RA_OF_ASC_NODE><ARG_OF_PERICENTER>73.3902</ARG_OF_PERICENTER><MEAN_ANOMALY>286.7412</MEAN_ANOMALY></meanElements><tleParameters><EPHEMERIS_TYPE>0</EPHEMERIS_TYPE><CLASSIFICATION_TYPE>U</CLASSIFICATION_TYPE><NORAD_CAT_ID>49189</NORAD_CAT_ID><ELEMENT_SET_NO>999</ELEMENT_SET_NO><REV_AT_EPOCH>17392</REV_AT_EPOCH><BSTAR>.17298E-3</BSTAR><MEAN_MOTION_DOT>.76E-6</MEAN_MOTION_DOT><MEAN_MOTION_DDOT>0</MEAN_MOTION_DDOT></tleParameters></data></segment></body></omm>

</ndm>
